SL-16 R/B               
1 28353U 04021B   25228.59994332  .00000339  00000+0  20124-3 0  9997
2 28353  71.0017 302.8793 0005761 330.3855  29.6940 14.14556881 93833
CZ-4B R/B               
1 28415U 04035C   25228.33842043  .00005722  00000+0  22871-3 0  9996
2 28415  97.3769 260.3528 0034189 337.7892  22.1863 15.24968121148579
CZ-2C R/B               
1 28480U 04046B   25228.73261969  .00000205  00000+0  91156-4 0  9990
2 28480  98.1912 151.5086 0140608  41.3641 319.8087 14.26857283 79275
ARIANE 5 R/B            
1 28499U 04049H   25228.72117635  .00000638  00000+0  78232-4 0  9992
2 28499  98.2419  24.8831 0083993 295.6371  63.6182 14.84615039115372
CZ-2D R/B               
1 28738U 05024B   25228.91309172  .00016084  00000+0  33253-3 0  9997
2 28738  97.3700 233.8815 0007893  70.1734 290.0365 15.45862483108027
ALOS (DAICHI)           
1 28931U 06002A   25229.14486724  .00001341  00000+0  23770-3 0  9997
2 28931  98.0883 181.6518 0001172 115.6250 244.5077 14.68900071 43824
H-2A R/B                
1 28932U 06002B   25228.60571439  .00006503  00000+0  37178-3 0  9998
2 28932  98.2182 354.1087 0057167 216.3204 143.4139 15.11678812 63406
RESURS-DK 1             
1 29228U 06021A   25228.78198164  .00002104  00000+0  13110-3 0  9990
2 29228  69.9340  46.4476 0001632  42.5917 317.5375 15.11243088 56552
CZ-4B R/B               
1 29507U 06046C   25228.54407852  .00003291  00000+0  18122-3 0  9994
2 29507  97.5914 269.0039 0033669 256.1887 103.5597 15.14278094 28970
CZ-2C R/B               
1 31114U 07010B   25228.56761392  .00000138  00000+0  82269-4 0  9998
2 31114  98.3856 347.2509 0059349 169.5918 190.6503 14.20146847950601
COSMO-SKYMED 1          
1 31598U 07023A   25229.13675811  .00003119  00000+0  29305-3 0  9995
2 31598  97.8900  53.8410 0001562  90.1523 269.9875 14.94668777984394
GENESIS 2               
1 31789U 07028A   25229.20255002  .00382425  70727-4  66139-3 0  9990
2 31789  64.4644 168.1456 0020704 287.1576  72.7321 16.01608378  3867
COSMOS 2428             
1 31792U 07029A   25229.07287588  .00000046  00000+0  50682-4 0  9999
2 31792  70.9424 272.8748 0004915 226.0491 134.0225 14.12901987935276
SL-16 R/B               
1 31793U 07029B   25228.76262208  .00000064  00000+0  58179-4 0  9996
2 31793  70.9712 243.1403 0002513 274.6324 258.4561 14.14788094936383
KORONAS-FOTON           
1 33504U 09003A   25228.44024762  .00005590  00000+0  14973-3 0  9990
2 33504  82.4330 128.3114 0012154 163.6120 196.5519 15.37698358914149
CZ-2C R/B               
1 37731U 11030B   25228.47116557  .00001208  00000+0  16169-3 0  9997
2 37731  97.8196 185.3931 0052020 299.0721 172.0612 14.80368404759729
H-2A R/B                
1 38341U 12025E   25228.81761644  .00002054  00000+0  19866-3 0  9998
2 38341  98.4393 175.2167 0044523 262.1488  97.4674 14.93341040717624
SHIJIAN-16 (SJ-16)      
1 39358U 13057A   25229.23381897  .00000922  00000+0  94729-4 0  9992
2 39358  74.9704 211.8821 0018306 250.8711 109.0495 14.91502573641080
SL-4 R/B                
1 39679U 14021B   25228.80099783  .00008256  00000+0  22343-3 0  9992
2 39679  51.6076 251.8463 0111190  79.2867 282.0610 15.32606286624787
ALOS-2                  
1 39766U 14029A   25229.19713081  .00001438  00000+0  19932-3 0  9999
2 39766  97.9225 325.7258 0001499  96.5919 263.5463 14.79481767606668
YAOGAN-29               
1 41038U 15069A   25229.19902305  .00000376  00000+0  53368-4 0  9990
2 41038  98.0335 251.9031 0000536   9.4918 350.6305 14.82698331525573
ASTRO-H (HITOMI)        
1 41337U 16012A   25228.73594517  .00002538  00000+0  15355-3 0  9997
2 41337  30.9989 237.4772 0009807  74.7473 285.4248 15.08340640521244
HXMT (HUIYAN)           
1 42758U 17034A   25228.86407081  .00003771  00000+0  21172-3 0  9997
2 42758  43.0146  72.7773 0033639  20.1636 340.0532 15.14374296451471
CZ-2C R/B               
1 43521U 18054D   25229.17358155  .00028330  00000+0  38495-3 0  9995
2 43521  35.1368 245.5182 0030116 110.4107 249.9858 15.56043428396646
SAOCOM 1A               
1 43641U 18076A   25229.13600898  .00000385  00000+0  54928-4 0  9992
2 43641  97.8900  55.2379 0001500  91.3016 268.8369 14.82155658371064
H-2A R/B                
1 43682U 18084L   25228.73306912  .00010794  00000+0  34611-3 0  9992
2 43682  98.8825  38.9148 0031108  11.2097 348.9826 15.32117481374301
SAOCOM 1B               
1 46265U 20059A   25229.16727435  .00000407  00000+0  57667-4 0  9999
2 46265  97.8906  54.3742 0001380  89.1175 271.0197 14.82147688268464
CSS (TIANHE)            
1 48274U 21035A   25229.09306779  .00021443  00000+0  28078-3 0  9998
2 48274  41.4658  11.5832 0005256 177.0541 183.0328 15.58070675245659
COSMOS 2550             
1 48865U 21056A   25229.22201145  .00000959  00000+0  34976-4 0  9997
2 48865  67.1414 299.4722 0008328 270.5927  89.4273 15.33824014232117
CZ-2C R/B               
1 52794U 22058K   25228.42472128  .00011593  00000+0  26506-3 0  9993
2 52794  50.1925 283.4704 0054661  63.7386 296.9183 15.41716656178347
GSLV R/B                
1 54149U 22138AN  25228.76304955  .00002527  00000+0  22706-3 0  9992
2 54149  87.3763 234.9644 0022697 168.9278 191.2457 14.95080610153291
XRISM                   
1 57800U 23137A   25229.19285694  .00004680  00000+0  28626-3 0  9994
2 57800  31.0011 163.4095 0007915 147.8645 212.2476 15.08587419106934
ACS3                    
1 59588U 24077B   25229.20061149  .00010436  00000+0  99389-2 0  9991
2 59588  97.4174 210.4714 0066655  22.7833 337.6259 13.79781849 65903
